HAWK-11B                
1 62379U 24247C   26068.44730104  .00009093  00000+0  32842-3 0  9993
2 62379  45.0161 115.7610 0004690 333.0326  27.0314 15.28847070 67738
STARLINK-34194          
1 64179U 25113K   26068.44742680  .00032903  00000+0  11182-2 0  9997
2 64179  53.1604  91.8602 0001558  73.4243 286.6929 15.30197387 45034
